STARLINK-4378           
1 53476U 22099M   26068.91466928 -.00000302  00000+0 -18951-4 0  9998
2 53476  97.6016 190.4295 0000801 205.3589 154.7596 15.01253303196014
QPS-SAR-12 (KUSHINADA-I)
1 65116U 25169A   26068.45165888  .00007038  00000+0  57220-3 0  9995
2 65116  42.0102 204.8332 0007793 277.3009  82.6931 14.99881586 32436
