[{"OBJECT_NAME":"STARLINK-4378","OBJECT_ID":"2022-099M","EPOCH":"2026-03-09T21:57:07.425792","MEAN_MOTION":15.01253303,"ECCENTRICITY":8.015e-5,"INCLINATION":97.6016,"RA_OF_ASC_NODE":190.4295,"ARG_OF_PERICENTER":205.3589,"MEAN_ANOMALY":154.7596,"EPHEMERIS_TYPE":0,"CLASSIFICATION_TYPE":"U","NORAD_CAT_ID":53476,"ELEMENT_SET_NO":999,"REV_AT_EPOCH":19601,"BSTAR":-1.8950603e-5,"MEAN_MOTION_DOT":-3.02e-6,"MEAN_MOTION_DDOT":0},{"OBJECT_NAME":"QPS-SAR-12 (KUSHINADA-I)","OBJECT_ID":"2025-169A","EPOCH":"2026-03-09T10:50:23.327232","MEAN_MOTION":14.99881586,"ECCENTRICITY":0.00077939,"INCLINATION":42.0102,"RA_OF_ASC_NODE":204.8332,"ARG_OF_PERICENTER":277.3009,"MEAN_ANOMALY":82.6931,"EPHEMERIS_TYPE":0,"CLASSIFICATION_TYPE":"U","NORAD_CAT_ID":65116,"ELEMENT_SET_NO":999,"REV_AT_EPOCH":3243,"BSTAR":0.00057220088,"MEAN_MOTION_DOT":7.038e-5,"MEAN_MOTION_DDOT":0}]
